NORAD_CAT_ID,OBJECT_NAME,OBJECT_TYPE,EPOCH,MEAN_MOTION,ECCENTRICITY,INCLINATION,RA_OF_ASC_NODE,ARG_OF_PERICENTER,MEAN_ANOMALY,BSTAR,MEAN_MOTION_DOT,MEAN_MOTION_DDOT,TLE_LINE0,TLE_LINE1,TLE_LINE2,SEMIMAJOR_AXIS,PERIOD,APOGEE,PERIGEE,DECAYED
51981.0,STARLINK-3635,PAYLOAD,2024-08-02 12:14:55,15.08851376,0.0001159,53.2143,141.6034,75.8876,284.2244,0.00036231,5.485e-05,0.0,0 STARLINK-3635,1 51981U 22025AB  24215.51036924  .00005485  00000-0  36231-3 0  9999,2 51981  53.2143 141.6034 0001159  75.8876 284.2244 15.08851376133962,6917.846,95.437,540.512,538.909,0.0
51981.0,STARLINK-3635,PAYLOAD,2024-08-03 04:08:48,15.08838101,0.0001437,53.215,138.6322,83.2333,276.8823,0.00020828,3.028e-05,0.0,0 STARLINK-3635,1 51981U 22025AB  24216.17277831  .00003028  00000-0  20828-3 0  9992,2 51981  53.2150 138.6322 0001437  83.2333 276.8823 15.08838101134069,6917.886,95.438,540.745,538.757,0.0
51981.0,STARLINK-3635,PAYLOAD,2024-08-04 11:56:30,15.08863135,0.0001491,53.216,132.6833,86.0017,274.1145,0.00067465,0.00010472,0.0,0 STARLINK-3635,1 51981U 22025AB  24217.49757257  .00010472  00000-0  67465-3 0  9992,2 51981  53.2160 132.6833 0001491  86.0017 274.1145 15.08863135134266,6917.81,95.436,540.706,538.643,0.0
51981.0,STARLINK-3635,PAYLOAD,2024-08-04 23:04:12,15.08852002,0.0001732,53.2163,130.6011,96.7002,263.4187,0.0003718,5.636e-05,0.0,0 STARLINK-3635,1 51981U 22025AB  24217.96125511  .00005636  00000-0  37180-3 0  9993,2 51981  53.2163 130.6011 0001732  96.7002 263.4187 15.08852002133239,6917.844,95.437,540.907,538.511,0.0
51981.0,STARLINK-3635,PAYLOAD,2024-08-05 22:55:00,15.08799977,0.0001325,53.2164,126.1419,111.8236,248.2897,-0.00076546,-0.00012436,0.0,0 STARLINK-3635,1 51981U 22025AB  24218.95486298 -.00012436  00000-0 -76546-3 0  9992,2 51981  53.2164 126.1419 0001325 111.8236 248.2897 15.08799977133384,6918.003,95.44,540.784,538.951,0.0
51981.0,STARLINK-3635,PAYLOAD,2024-08-06 03:41:10,15.08792569,0.0001269,53.216,125.2503,112.597,247.5156,-0.00034912,-5.832e-05,0.0,0 STARLINK-3635,1 51981U 22025AB  24219.15359213 -.00005832  00000-0 -34912-3 0  9994,2 51981  53.2160 125.2503 0001269 112.5970 247.5156 15.08792569134510,6918.025,95.441,540.768,539.012,0.0
51981.0,STARLINK-3635,PAYLOAD,2024-08-06 21:10:25,15.08832004,0.0001072,53.2162,121.9862,69.6302,290.4805,0.0013892,0.00021885,0.0,0 STARLINK-3635,1 51981U 22025AB  24219.88224319  .00021885  00000-0  13892-2 0  9999,2 51981  53.2162 121.9862 0001072  69.6302 290.4805 15.08832004133523,6917.905,95.438,540.511,539.028,0.0
51981.0,STARLINK-3635,PAYLOAD,2024-08-07 00:21:11,15.08876786,0.0001309,53.2161,121.3867,121.3518,238.7602,0.0031348,0.00050007,0.0,0 STARLINK-3635,1 51981U 22025AB  24220.01471748  .00050007  00000-0  31348-2 0  9990,2 51981  53.2161 121.3867 0001309 121.3518 238.7602 15.08876786134648,6917.768,95.435,540.538,538.727,0.0
51981.0,STARLINK-3635,PAYLOAD,2024-08-07 21:01:11,15.08884878,0.0001202,53.2149,117.5192,114.5411,245.5707,0.0016335,0.00025837,0.0,0 STARLINK-3635,1 51981U 22025AB  24220.87582486  .00025837  00000-0  16335-2 0  9998,2 51981  53.2149 117.5192 0001202 114.5411 245.5707 15.08884878133675,6917.743,95.435,540.44,538.777,0.0
51981.0,STARLINK-3635,PAYLOAD,2024-08-08 04:58:06,15.08881724,0.0001345,53.2158,116.0349,122.2116,237.9007,0.0032511,0.00051894,0.0,0 STARLINK-3635,1 51981U 22025AB  24221.20701907  .00051894  00000-0  32511-2 0  9993,2 51981  53.2158 116.0349 0001345 122.2116 237.9007 15.08881724133720,6917.753,95.435,540.548,538.687,0.0
51981.0,STARLINK-3635,PAYLOAD,2024-08-08 20:51:57,15.08865546,0.0001409,53.2162,113.0596,118.1745,241.9389,0.0024774,0.00039388,0.0,0 STARLINK-3635,1 51981U 22025AB  24221.86941910  .00039388  00000-0  24774-2 0  9991,2 51981  53.2162 113.0596 0001409 118.1745 241.9389 15.08865546134924,6917.802,95.436,540.642,538.693,0.0
51981.0,STARLINK-3635,PAYLOAD,2024-08-08 22:27:20,15.08851778,0.0002557,53.2151,112.7543,151.6944,208.4188,0.0012652,0.00019912,0.0,0 STARLINK-3635,1 51981U 22025AB  24221.93565471  .00019912  00000-0  12652-2 0  9996,2 51981  53.2151 112.7543 0002557 151.6944 208.4188 15.08851778133834,6917.844,95.437,541.478,537.94,0.0
51981.0,STARLINK-3635,PAYLOAD,2024-08-09 00:02:44,15.08847016,0.0001089,53.2154,112.4604,83.4785,276.6331,0.00080165,0.00012496,0.0,0 STARLINK-3635,1 51981U 22025AB  24222.00189991  .00012496  00000-0  80165-3 0  9999,2 51981  53.2154 112.4604 0001089  83.4785 276.6331 15.08847016134946,6917.859,95.437,540.477,538.971,0.0
51981.0,STARLINK-3635,PAYLOAD,2024-08-09 09:35:02,15.08871341,9.93e-05,53.2139,110.6839,69.9548,290.1551,0.001081,0.00016973,0.0,0 STARLINK-3635,1 51981U 22025AB  24222.39933293  .00016973  00000-0  10810-2 0  9996,2 51981  53.2139 110.6839 0000993  69.9548 290.1551 15.08871341135009,6917.785,95.436,540.337,538.963,0.0
51981.0,STARLINK-3635,PAYLOAD,2024-08-09 15:56:35,15.08836754,0.0002111,53.2144,109.4919,67.0427,293.0788,-6.5917e-05,-1.337e-05,0.0,0 STARLINK-3635,1 51981U 22025AB  24222.66429925 -.00001337  00000-0 -65917-4 0  9998,2 51981  53.2144 109.4919 0002111  67.0427 293.0788 15.08836754135046,6917.89,95.438,541.216,538.295,0.0
51981.0,STARLINK-3635,PAYLOAD,2024-08-09 20:42:45,15.08822236,0.0001155,53.2147,108.5992,77.0408,283.0713,-1.5385e-05,-5.32e-06,0.0,0 STARLINK-3635,1 51981U 22025AB  24222.86302249 -.00000532  00000-0 -15385-4 0  9999,2 51981  53.2147 108.5992 0001155  77.0408 283.0713 15.08822236133974,6917.935,95.439,540.599,539.001,0.0
51981.0,STARLINK-3635,PAYLOAD,2024-08-10 01:28:54,15.08841122,0.0001247,53.2163,107.7063,67.6125,292.4999,0.0010485,0.00016439,0.0,0 STARLINK-3635,1 51981U 22025AB  24223.06174267  .00016439  00000-0  10485-2 0  9994,2 51981  53.2163 107.7063 0001247  67.6125 292.4999 15.08841122135107,6917.877,95.437,540.605,538.879,0.0
51981.0,STARLINK-3635,PAYLOAD,2024-08-10 20:33:32,15.0886088,0.0001883,53.2139,104.1363,143.7514,216.3606,0.0024615,0.00039127,0.0,0 STARLINK-3635,1 51981U 22025AB  24223.85662584  .00039127  00000-0  24615-2 0  9994,2 51981  53.2139 104.1363 0001883 143.7514 216.3606 15.08860880135223,6917.817,95.436,540.984,538.379,0.0
51981.0,STARLINK-3635,PAYLOAD,2024-08-10 22:08:55,15.08863278,0.0002144,53.214,103.8401,158.3355,201.7728,0.0023147,0.00036767,0.0,0 STARLINK-3635,1 51981U 22025AB  24223.92286349  .00036767  00000-0  23147-2 0  9999,2 51981  53.2140 103.8401 0002144 158.3355 201.7728 15.08863278134136,6917.809,95.436,541.157,538.191,0.0
51981.0,STARLINK-3635,PAYLOAD,2024-08-11 01:19:41,15.08860377,0.0001047,53.2142,103.2457,110.7547,249.3558,0.0016583,0.00026217,0.0,0 STARLINK-3635,1 51981U 22025AB  24224.05534551  .00026217  00000-0  16583-2 0  9990,2 51981  53.2142 103.2457 0001047 110.7547 249.3558 15.08860377135259,6917.818,95.436,540.407,538.959,0.0
51981.0,STARLINK-3635,PAYLOAD,2024-08-11 15:38:10,15.08826022,0.0001161,53.216,100.5696,107.1255,252.9864,0.00047526,7.281e-05,0.0,0 STARLINK-3635,1 51981U 22025AB  24224.65150866  .00007281  00000-0  47526-3 0  9991,2 51981  53.2160 100.5696 0001161 107.1255 252.9864 15.08826022135346,6917.923,95.438,540.591,538.985,0.0
51981.0,STARLINK-3635,PAYLOAD,2024-08-11 21:59:42,15.08853672,0.0001292,53.215,99.38,107.4994,252.6139,0.0024755,0.00039345,0.0,0 STARLINK-3635,1 51981U 22025AB  24224.91646797  .00039345  00000-0  24755-2 0  9997,2 51981  53.2150  99.3800 0001292 107.4994 252.6139 15.08853672134280,6917.839,95.437,540.597,538.81,0.0
51981.0,STARLINK-3635,PAYLOAD,2024-08-11 23:35:05,15.08856338,0.0001047,53.2148,99.0817,116.7213,243.3886,0.0030198,0.00048122,0.0,0 STARLINK-3635,1 51981U 22025AB  24224.98270693  .00048122  00000-0  30198-2 0  9993,2 51981  53.2148  99.0817 0001047 116.7213 243.3886 15.08856338135398,6917.83,95.437,540.42,538.971,0.0
51981.0,STARLINK-3635,PAYLOAD,2024-08-12 09:07:23,15.08884859,0.0001106,53.2155,97.2936,126.6849,233.4245,0.0018773,0.00029752,0.0,0 STARLINK-3635,1 51981U 22025AB  24225.38013826  .00029752  00000-0  18773-2 0  9994,2 51981  53.2155  97.2936 0001106 126.6849 233.4245 15.08884859135454,6917.743,95.435,540.373,538.843,0.0
51981.0,STARLINK-3635,PAYLOAD,2024-08-12 15:28:56,15.08879167,0.000243,53.2152,96.1069,108.6279,251.4977,0.0013541,0.00021352,0.0,0 STARLINK-3635,1 51981U 22025AB  24225.64509894  .00021352  00000-0  13541-2 0  9994,2 51981  53.2152  96.1069 0002430 108.6279 251.4977 15.08879167135496,6917.761,95.435,541.307,537.945,0.0
51981.0,STARLINK-3635,PAYLOAD,2024-08-12 21:50:28,15.08872905,0.0001466,53.2153,94.9186,87.8652,272.2508,0.0023157,0.00036792,0.0,0 STARLINK-3635,1 51981U 22025AB  24225.91005766  .00036792  00000-0  23157-2 0  9991,2 51981  53.2153  94.9186 0001466  87.8652 272.2508 15.08872905134431,6917.78,95.435,540.659,538.631,0.0
51981.0,STARLINK-3635,PAYLOAD,2024-08-13 08:58:12,15.08767104,0.0001461,53.2156,92.8358,88.5104,271.6055,-0.0020156,-0.00032159,0.0,0 STARLINK-3635,1 51981U 22025AB  24226.37376046 -.00032159  00000-0 -20156-2 0  9995,2 51981  53.2156  92.8358 0001461  88.5104 271.6055 15.08767104135601,6918.103,95.442,540.979,538.957,0.0
51981.0,STARLINK-3635,PAYLOAD,2024-08-13 21:41:19,15.08776113,5.28e-05,53.2127,90.4587,60.1388,299.9657,0.0012875,0.00020226,0.0,0 STARLINK-3635,1 51981U 22025AB  24226.90370358  .00020226  00000-0  12875-2 0  9993,2 51981  53.2127  90.4587 0000528  60.1388 299.9657 15.08776113134587,6918.076,95.442,540.306,539.575,0.0
51981.0,STARLINK-3635,PAYLOAD,2024-08-14 19:56:42,15.0889196,0.0001253,53.2167,86.2979,96.7977,263.3157,0.0015939,0.00025206,0.0,0 STARLINK-3635,1 51981U 22025AB  24227.83104531  .00025206  00000-0  15939-2 0  9991,2 51981  53.2167  86.2979 0001253  96.7977 263.3157 15.08891960135820,6917.722,95.434,540.453,538.72,0.0
51981.0,STARLINK-3635,PAYLOAD,2024-08-14 21:32:05,15.08887778,0.000127,53.2166,85.9978,99.001,261.1126,0.0011585,0.00018222,0.0,0 STARLINK-3635,1 51981U 22025AB  24227.89728303  .00018222  00000-0  11585-2 0  9999,2 51981  53.2166  85.9978 0001270  99.0010 261.1126 15.08887778134730,6917.734,95.435,540.478,538.721,0.0
